{"type": "FeatureCollection", "features": [ {"type": "Feature", "properties": {"norad_id": 36045, "name": "COSMOS 2251 DEB", "group": "cosmos-2251-debris", "lat": -47.38190221914374, "lon": 37.19803887678166, "alt_km": 684.187818242769, "timestamp": "2025-12-14T11:29:50.457326+00:00", "meta": {"OBJECT_NAME": "COSMOS 2251 DEB", "OBJECT_ID": "1993-036AXG", "EPOCH": "2025-12-11T13:29:08.197152", "MEAN_MOTION": 14.69806465, "ECCENTRICITY": 0.00482484, "INCLINATION": 73.7636, "RA_OF_ASC_NODE": 61.4081, "ARG_OF_PERICENTER": 75.4727, "MEAN_ANOMALY": 285.1788, "EPHEMERIS_TYPE": 0, "CLASSIFICATION_TYPE": "U", "NORAD_CAT_ID": 36045, "ELEMENT_SET_NO": 999, "REV_AT_EPOCH": 8371, "BSTAR": 0.0031629771, "MEAN_MOTION_DOT": 0.00019249, "MEAN_MOTION_DDOT": 0}, "tle": {"line1": "1 36045U 93036AXG 25345.56190043  .00019249  00000+0  31630-2 0  9995", "line2": "2 36045  73.7636  61.4081 0048248  75.4727 285.1788 14.69806465 83717"}}, "geometry": {"type": "Point", "coordinates": [37.19803887678166, -47.38190221914374]}}, {"type": "Feature", "properties": {"norad_id": 36046, "name": "COSMOS 2251 DEB", "group": "cosmos-2251-debris", "lat": -17.53362840120322, "lon": -92.04834270210696, "alt_km": 671.6135223162228, "timestamp": "2025-12-14T11:29:50.457336+00:00", "meta": {"OBJECT_NAME": "COSMOS 2251 DEB", "OBJECT_ID": "1993-036AXH", "EPOCH": "2025-12-13T13:27:02.887776", "MEAN_MOTION": 14.65277312, "ECCENTRICITY": 0.00555987, "INCLINATION": 74.0166, "RA_OF_ASC_NODE": 274.9164, "ARG_OF_PERICENTER": 60.6505, "MEAN_ANOMALY": 118.1595, "EPHEMERIS_TYPE": 0, "CLASSIFICATION_TYPE": "U", "NORAD_CAT_ID": 36046, "ELEMENT_SET_NO": 999, "REV_AT_EPOCH": 64015, "BSTAR": 0.000804374, "MEAN_MOTION_DOT": 4.408e-05, "MEAN_MOTION_DDOT": 0}, "tle": {"line1": "1 36046U 93036AXH 25347.56045009  .00004408  00000+0  80437-3 0  9990", "line2": "2 36046  74.0166 274.9164 0055598  60.6505 118.1595 14.65277312640156"}}, "geometry": {"type": "Point", "coordinates": [-92.04834270210696, -17.53362840120322]}}, {"type": "Feature", "properties": {"norad_id": 36047, "name": "COSMOS 2251 DEB", "group": "cosmos-2251-debris", "lat": 67.10644810582806, "lon": 107.96699253305536, "alt_km": 574.0404716263392, "timestamp": "2025-12-14T11:29:50.457346+00:00", "meta": {"OBJECT_NAME": "COSMOS 2251 DEB", "OBJECT_ID": "1993-036AXJ", "EPOCH": "2025-12-13T09:20:40.596000", "MEAN_MOTION": 14.96004971, "ECCENTRICITY": 0.00082365, "INCLINATION": 74.0362, "RA_OF_ASC_NODE": 332.8451, "ARG_OF_PERICENTER": 359.1312, "MEAN_ANOMALY": 0.9857, "EPHEMERIS_TYPE": 0, "CLASSIFICATION_TYPE": "U", "NORAD_CAT_ID": 36047, "ELEMENT_SET_NO": 999, "REV_AT_EPOCH": 65949, "BSTAR": 0.0037615034, "MEAN_MOTION_DOT": 0.00042457, "MEAN_MOTION_DDOT": 0}, "tle": {"line1": "1 36047U 93036AXJ 25347.38935875  .00042457  00000+0  37615-2 0  9995", "line2": "2 36047  74.0362 332.8451 0008236 359.1312   0.9857 14.96004971659496"}}, "geometry": {"type": "Point", "coordinates": [107.96699253305536, 67.10644810582806]}}, {"type": "Feature", "properties": {"norad_id": 36048, "name": "COSMOS 2251 DEB", "group": "cosmos-2251-debris", "lat": 30.681759034590304, "lon": -54.148061058018726, "alt_km": 750.4378186976792, "timestamp": "2025-12-14T11:29:50.457357+00:00", "meta": {"OBJECT_NAME": "COSMOS 2251 DEB", "OBJECT_ID": "1993-036AXK", "EPOCH": "2025-12-12T21:05:00.550176", "MEAN_MOTION": 14.37852593, "ECCENTRICITY": 0.00266374, "INCLINATION": 74.0569, "RA_OF_ASC_NODE": 299.0293, "ARG_OF_PERICENTER": 349.0674, "MEAN_ANOMALY": 41.1669, "EPHEMERIS_TYPE": 0, "CLASSIFICATION_TYPE": "U", "NORAD_CAT_ID": 36048, "ELEMENT_SET_NO": 999, "REV_AT_EPOCH": 85504, "BSTAR": 0.00045621614, "MEAN_MOTION_DOT": 1.355e-05, "MEAN_MOTION_DDOT": 0}, "tle": {"line1": "1 36048U 93036AXK 25346.87847859  .00001355  00000+0  45622-3 0  9993", "line2": "2 36048  74.0569 299.0293 0026637 349.0674  41.1669 14.37852593855041"}}, "geometry": {"type": "Point", "coordinates": [-54.148061058018726, 30.681759034590304]}}, {"type": "Feature", "properties": {"norad_id": 36049, "name": "COSMOS 2251 DEB", "group": "cosmos-2251-debris", "lat": -64.54274025625656, "lon": 78.87154585255887, "alt_km": 692.7275489032709, "timestamp": "2025-12-14T11:29:50.457366+00:00", "meta": {"OBJECT_NAME": "COSMOS 2251 DEB", "OBJECT_ID": "1993-036AXL", "EPOCH": "2025-12-12T15:28:50.877120", "MEAN_MOTION": 14.62144824, "ECCENTRICITY": 0.00107751, "INCLINATION": 74.03, "RA_OF_ASC_NODE": 119.3632, "ARG_OF_PERICENTER": 206.0125, "MEAN_ANOMALY": 154.0501, "EPHEMERIS_TYPE": 0, "CLASSIFICATION_TYPE": "U", "NORAD_CAT_ID": 36049, "ELEMENT_SET_NO": 999, "REV_AT_EPOCH": 85363, "BSTAR": 0.0021295048, "MEAN_MOTION_DOT": 0.00010708, "MEAN_MOTION_DDOT": 0}, "tle": {"line1": "1 36049U 93036AXL 25346.64503330  .00010708  00000+0  21295-2 0  9993", "line2": "2 36049  74.0300 119.3632 0010775 206.0125 154.0501 14.62144824853636"}}, "geometry": {"type": "Point", "coordinates": [78.87154585255887, -64.54274025625656]}}, {"type": "Feature", "properties": {"norad_id": 36050, "name": "COSMOS 2251 DEB", "group": "cosmos-2251-debris", "lat": -59.91376004809127, "lon": 40.10463955875382, "alt_km": 514.7414466348491, "timestamp": "2025-12-14T11:29:50.457376+00:00", "meta": {"OBJECT_NAME": "COSMOS 2251 DEB", "OBJECT_ID": "1993-036AXM", "EPOCH": "2025-12-13T07:12:52.072416", "MEAN_MOTION": 15.0104813, "ECCENTRICITY": 0.00886789, "INCLINATION": 74.0308, "RA_OF_ASC_NODE": 192.882, "ARG_OF_PERICENTER": 272.3797, "MEAN_ANOMALY": 86.7239, "EPHEMERIS_TYPE": 0, "CLASSIFICATION_TYPE": "U", "NORAD_CAT_ID": 36050, "ELEMENT_SET_NO": 999, "REV_AT_EPOCH": 67043, "BSTAR": 0.00086975595, "MEAN_MOTION_DOT": 0.0001207, "MEAN_MOTION_DDOT": 0}, "tle": {"line1": "1 36050U 93036AXM 25347.30060269  .00012070  00000+0  86976-3 0  9990", "line2": "2 36050  74.0308 192.8820 0088678 272.3797  86.7239 15.01048130670430"}}, "geometry": {"type": "Point", "coordinates": [40.10463955875382, -59.91376004809127]}}, {"type": "Feature", "properties": {"norad_id": 36053, "name": "COSMOS 2251 DEB", "group": "cosmos-2251-debris", "lat": -54.04419338391231, "lon": -7.139379357260063, "alt_km": 726.2673991916508, "timestamp": "2025-12-14T11:29:50.457515+00:00", "meta": {"OBJECT_NAME": "COSMOS 2251 DEB", "OBJECT_ID": "1993-036AXQ", "EPOCH": "2025-12-13T04:45:23.710176", "MEAN_MOTION": 14.57191678, "ECCENTRICITY": 0.0032546, "INCLINATION": 73.8709, "RA_OF_ASC_NODE": 151.8055, "ARG_OF_PERICENTER": 100.6659, "MEAN_ANOMALY": 259.8172, "EPHEMERIS_TYPE": 0, "CLASSIFICATION_TYPE": "U", "NORAD_CAT_ID": 36053, "ELEMENT_SET_NO": 999, "REV_AT_EPOCH": 87451, "BSTAR": 0.0027691156, "MEAN_MOTION_DOT": 0.00012586, "MEAN_MOTION_DDOT": 0}, "tle": {"line1": "1 36053U 93036AXQ 25347.19819109  .00012586  00000+0  27691-2 0  9995", "line2": "2 36053  73.8709 151.8055 0032546 100.6659 259.8172 14.57191678874513"}}, "geometry": {"type": "Point", "coordinates": [-7.139379357260063, -54.04419338391231]}}, {"type": "Feature", "properties": {"norad_id": 36058, "name": "COSMOS 2251 DEB", "group": "cosmos-2251-debris", "lat": 12.038723777498522, "lon": 33.65053776925988, "alt_km": 726.0988638229819, "timestamp": "2025-12-14T11:29:50.457528+00:00", "meta": {"OBJECT_NAME": "COSMOS 2251 DEB", "OBJECT_ID": "1993-036AXV", "EPOCH": "2025-12-09T21:09:28.031616", "MEAN_MOTION": 14.58669067, "ECCENTRICITY": 0.00447805, "INCLINATION": 74.0233, "RA_OF_ASC_NODE": 38.9054, "ARG_OF_PERICENTER": 173.9779, "MEAN_ANOMALY": 186.1934, "EPHEMERIS_TYPE": 0, "CLASSIFICATION_TYPE": "U", "NORAD_CAT_ID": 36058, "ELEMENT_SET_NO": 999, "REV_AT_EPOCH": 66069, "BSTAR": 0.00079291916, "MEAN_MOTION_DOT": 3.72e-05, "MEAN_MOTION_DDOT": 0}, "tle": {"line1": "1 36058U 93036AXV 25343.88157444  .00003720  00000+0  79292-3 0  9994", "line2": "2 36058  74.0233  38.9054 0044780 173.9779 186.1934 14.58669067660699"}}, "geometry": {"type": "Point", "coordinates": [33.65053776925988, 12.038723777498522]}}, {"type": "Feature", "properties": {"norad_id": 36060, "name": "COSMOS 2251 DEB", "group": "cosmos-2251-debris", "lat": 8.443539545632923, "lon": 48.905016721687794, "alt_km": 763.3494950918848, "timestamp": "2025-12-14T11:29:50.457539+00:00", "meta": {"OBJECT_NAME": "COSMOS 2251 DEB", "OBJECT_ID": "1993-036AXX", "EPOCH": "2025-12-12T23:44:25.062144", "MEAN_MOTION": 14.42000577, "ECCENTRICITY": 0.00152909, "INCLINATION": 74.0287, "RA_OF_ASC_NODE": 234.1035, "ARG_OF_PERICENTER": 330.9868, "MEAN_ANOMALY": 29.0436, "EPHEMERIS_TYPE": 0, "CLASSIFICATION_TYPE": "U", "NORAD_CAT_ID": 36060, "ELEMENT_SET_NO": 999, "REV_AT_EPOCH": 85013, "BSTAR": 0.00049024599, "MEAN_MOTION_DOT": 1.584e-05, "MEAN_MOTION_DDOT": 0}, "tle": {"line1": "1 36060U 93036AXX 25346.98917896  .00001584  00000+0  49025-3 0  9993", "line2": "2 36060  74.0287 234.1035 0015290 330.9868  29.0436 14.42000577850138"}}, "geometry": {"type": "Point", "coordinates": [48.905016721687794, 8.443539545632923]}}, {"type": "Feature", "properties": {"norad_id": 36061, "name": "COSMOS 2251 DEB", "group": "cosmos-2251-debris", "lat": -55.946366716556135, "lon": -28.501056737732295, "alt_km": 807.2037651249311, "timestamp": "2025-12-14T11:29:50.457549+00:00", "meta": {"OBJECT_NAME": "COSMOS 2251 DEB", "OBJECT_ID": "1993-036AXY", "EPOCH": "2025-12-13T07:18:22.504032", "MEAN_MOTION": 14.33710142, "ECCENTRICITY": 0.00367997, "INCLINATION": 74.0242, "RA_OF_ASC_NODE": 358.7264, "ARG_OF_PERICENTER": 86.5277, "MEAN_ANOMALY": 274.0082, "EPHEMERIS_TYPE": 0, "CLASSIFICATION_TYPE": "U", "NORAD_CAT_ID": 36061, "ELEMENT_SET_NO": 999, "REV_AT_EPOCH": 65112, "BSTAR": 0.00043212222, "MEAN_MOTION_DOT": 1.183e-05, "MEAN_MOTION_DDOT": 0}, "tle": {"line1": "1 36061U 93036AXY 25347.30442713  .00001183  00000+0  43212-3 0  9999", "line2": "2 36061  74.0242 358.7264 0036799  86.5277 274.0082 14.33710142651125"}}, "geometry": {"type": "Point", "coordinates": [-28.501056737732295, -55.946366716556135]}}]}